{"type": "FeatureCollection", "features": [ {"type": "Feature", "properties": {"norad_id": 30690, "name": "FENGYUN 1C DEB", "group": "fengyun-1c-debris", "lat": -59.2162158380614, "lon": -62.9685914525615, "alt_km": 936.0846853971343, "timestamp": "2025-12-16T21:38:57.452677+00:00", "meta": {"OBJECT_NAME": "FENGYUN 1C DEB", "OBJECT_ID": "1999-025AQY", "EPOCH": "2025-12-16T01:27:01.649664", "MEAN_MOTION": 14.02339375, "ECCENTRICITY": 0.01050813, "INCLINATION": 99.1589, "RA_OF_ASC_NODE": 280.4734, "ARG_OF_PERICENTER": 66.9647, "MEAN_ANOMALY": 307.0799, "EPHEMERIS_TYPE": 0, "CLASSIFICATION_TYPE": "U", "NORAD_CAT_ID": 30690, "ELEMENT_SET_NO": 999, "REV_AT_EPOCH": 95754, "BSTAR": 0.0010755782, "MEAN_MOTION_DOT": 1.688e-05, "MEAN_MOTION_DDOT": 0}, "tle": {"line1": "1 30690U 99025AQY 25350.06043576  .00001688  00000+0  10756-2 0  9992", "line2": "2 30690  99.1589 280.4734 0105081  66.9647 307.0799 14.02339375957544"}}, "geometry": {"type": "Point", "coordinates": [-62.9685914525615, -59.2162158380614]}}, {"type": "Feature", "properties": {"norad_id": 30691, "name": "FENGYUN 1C DEB", "group": "fengyun-1c-debris", "lat": 74.74636324135078, "lon": -143.5924531014596, "alt_km": 971.9583845089364, "timestamp": "2025-12-16T21:38:57.452689+00:00", "meta": {"OBJECT_NAME": "FENGYUN 1C DEB", "OBJECT_ID": "1999-025AQZ", "EPOCH": "2025-12-16T00:44:24.616608", "MEAN_MOTION": 13.89443647, "ECCENTRICITY": 0.01393841, "INCLINATION": 98.7419, "RA_OF_ASC_NODE": 1.2405, "ARG_OF_PERICENTER": 224.0503, "MEAN_ANOMALY": 204.4481, "EPHEMERIS_TYPE": 0, "CLASSIFICATION_TYPE": "U", "NORAD_CAT_ID": 30691, "ELEMENT_SET_NO": 999, "REV_AT_EPOCH": 95162, "BSTAR": 0.00096663385, "MEAN_MOTION_DOT": 1.235e-05, "MEAN_MOTION_DDOT": 0}, "tle": {"line1": "1 30691U 99025AQZ 25350.03084047  .00001235  00000+0  96663-3 0  9998", "line2": "2 30691  98.7419   1.2405 0139384 224.0503 204.4481 13.89443647951620"}}, "geometry": {"type": "Point", "coordinates": [-143.5924531014596, 74.74636324135078]}}, {"type": "Feature", "properties": {"norad_id": 30693, "name": "FENGYUN 1C DEB", "group": "fengyun-1c-debris", "lat": -35.51431843400357, "lon": 149.64422900209524, "alt_km": 843.7810004116936, "timestamp": "2025-12-16T21:38:57.452700+00:00", "meta": {"OBJECT_NAME": "FENGYUN 1C DEB", "OBJECT_ID": "1999-025ARB", "EPOCH": "2025-12-15T22:32:39.704352", "MEAN_MOTION": 14.13290646, "ECCENTRICITY": 0.00294301, "INCLINATION": 98.686, "RA_OF_ASC_NODE": 334.9731, "ARG_OF_PERICENTER": 158.2977, "MEAN_ANOMALY": 201.945, "EPHEMERIS_TYPE": 0, "CLASSIFICATION_TYPE": "U", "NORAD_CAT_ID": 30693, "ELEMENT_SET_NO": 999, "REV_AT_EPOCH": 96980, "BSTAR": 0.00030984814, "MEAN_MOTION_DOT": 5.41e-06, "MEAN_MOTION_DDOT": 0}, "tle": {"line1": "1 30693U 99025ARB 25349.93934843  .00000541  00000+0  30985-3 0  9999", "line2": "2 30693  98.6860 334.9731 0029430 158.2977 201.9450 14.13290646969806"}}, "geometry": {"type": "Point", "coordinates": [149.64422900209524, -35.51431843400357]}}, {"type": "Feature", "properties": {"norad_id": 30694, "name": "FENGYUN 1C DEB", "group": "fengyun-1c-debris", "lat": 54.156029399057466, "lon": 150.4159626103688, "alt_km": 686.6028805024253, "timestamp": "2025-12-16T21:38:57.452711+00:00", "meta": {"OBJECT_NAME": "FENGYUN 1C DEB", "OBJECT_ID": "1999-025ARC", "EPOCH": "2025-12-15T20:50:59.796960", "MEAN_MOTION": 14.86573324, "ECCENTRICITY": 0.01298518, "INCLINATION": 99.0468, "RA_OF_ASC_NODE": 316.4988, "ARG_OF_PERICENTER": 284.8035, "MEAN_ANOMALY": 73.8822, "EPHEMERIS_TYPE": 0, "CLASSIFICATION_TYPE": "U", "NORAD_CAT_ID": 30694, "ELEMENT_SET_NO": 999, "REV_AT_EPOCH": 142, "BSTAR": 0.0011867577, "MEAN_MOTION_DOT": 0.00012206, "MEAN_MOTION_DDOT": 0}, "tle": {"line1": "1 30694U 99025ARC 25349.86874765  .00012206  00000+0  11868-2 0  9997", "line2": "2 30694  99.0468 316.4988 0129851 284.8035  73.8822 14.86573324  1425"}}, "geometry": {"type": "Point", "coordinates": [150.4159626103688, 54.156029399057466]}}, {"type": "Feature", "properties": {"norad_id": 30696, "name": "FENGYUN 1C DEB", "group": "fengyun-1c-debris", "lat": 18.51117798439403, "lon": -137.30075204838155, "alt_km": 699.7943524574121, "timestamp": "2025-12-16T21:38:57.452721+00:00", "meta": {"OBJECT_NAME": "FENGYUN 1C DEB", "OBJECT_ID": "1999-025ARE", "EPOCH": "2025-12-16T02:45:34.996032", "MEAN_MOTION": 14.44782807, "ECCENTRICITY": 0.00897769, "INCLINATION": 98.3891, "RA_OF_ASC_NODE": 39.0902, "ARG_OF_PERICENTER": 115.685, "MEAN_ANOMALY": 273.4061, "EPHEMERIS_TYPE": 0, "CLASSIFICATION_TYPE": "U", "NORAD_CAT_ID": 30696, "ELEMENT_SET_NO": 999, "REV_AT_EPOCH": 98353, "BSTAR": 0.00054953893, "MEAN_MOTION_DOT": 1.96e-05, "MEAN_MOTION_DDOT": 0}, "tle": {"line1": "1 30696U 99025ARE 25350.11498838  .00001960  00000+0  54954-3 0  9991", "line2": "2 30696  98.3891  39.0902 0089776 115.6850 273.4061 14.44782807983536"}}, "geometry": {"type": "Point", "coordinates": [-137.30075204838155, 18.51117798439403]}}, {"type": "Feature", "properties": {"norad_id": 30697, "name": "FENGYUN 1C DEB", "group": "fengyun-1c-debris", "lat": -2.886414682322385, "lon": -132.72634668413747, "alt_km": 787.6538684800926, "timestamp": "2025-12-16T21:38:57.452731+00:00", "meta": {"OBJECT_NAME": "FENGYUN 1C DEB", "OBJECT_ID": "1999-025ARF", "EPOCH": "2025-12-15T14:56:36.208320", "MEAN_MOTION": 14.13538077, "ECCENTRICITY": 0.00881273, "INCLINATION": 98.9072, "RA_OF_ASC_NODE": 46.4528, "ARG_OF_PERICENTER": 177.2425, "MEAN_ANOMALY": 338.4172, "EPHEMERIS_TYPE": 0, "CLASSIFICATION_TYPE": "U", "NORAD_CAT_ID": 30697, "ELEMENT_SET_NO": 999, "REV_AT_EPOCH": 96301, "BSTAR": 0.0012976224, "MEAN_MOTION_DOT": 2.493e-05, "MEAN_MOTION_DDOT": 0}, "tle": {"line1": "1 30697U 99025ARF 25349.62264130  .00002493  00000+0  12976-2 0  9991", "line2": "2 30697  98.9072  46.4528 0088127 177.2425 338.4172 14.13538077963011"}}, "geometry": {"type": "Point", "coordinates": [-132.72634668413747, -2.886414682322385]}}, {"type": "Feature", "properties": {"norad_id": 30699, "name": "FENGYUN 1C DEB", "group": "fengyun-1c-debris", "lat": 80.42546882296544, "lon": 7.366450665652671, "alt_km": 730.8146111646538, "timestamp": "2025-12-16T21:38:57.452741+00:00", "meta": {"OBJECT_NAME": "FENGYUN 1C DEB", "OBJECT_ID": "1999-025ARH", "EPOCH": "2025-12-16T06:17:18.616992", "MEAN_MOTION": 14.46993442, "ECCENTRICITY": 0.00044837, "INCLINATION": 99.3116, "RA_OF_ASC_NODE": 110.0877, "ARG_OF_PERICENTER": 245.6467, "MEAN_ANOMALY": 114.4255, "EPHEMERIS_TYPE": 0, "CLASSIFICATION_TYPE": "U", "NORAD_CAT_ID": 30699, "ELEMENT_SET_NO": 999, "REV_AT_EPOCH": 97664, "BSTAR": 0.0015873145, "MEAN_MOTION_DOT": 5.725e-05, "MEAN_MOTION_DDOT": 0}, "tle": {"line1": "1 30699U 99025ARH 25350.26202103  .00005725  00000+0  15873-2 0  9997", "line2": "2 30699  99.3116 110.0877 0004483 245.6467 114.4255 14.46993442976645"}}, "geometry": {"type": "Point", "coordinates": [7.366450665652671, 80.42546882296544]}}, {"type": "Feature", "properties": {"norad_id": 30700, "name": "FENGYUN 1C DEB", "group": "fengyun-1c-debris", "lat": -18.655357497122314, "lon": -163.81047228705032, "alt_km": 793.082631484478, "timestamp": "2025-12-16T21:38:57.452751+00:00", "meta": {"OBJECT_NAME": "FENGYUN 1C DEB", "OBJECT_ID": "1999-025ARJ", "EPOCH": "2025-12-15T12:40:51.787488", "MEAN_MOTION": 14.23796371, "ECCENTRICITY": 0.00872134, "INCLINATION": 98.5415, "RA_OF_ASC_NODE": 17.7636, "ARG_OF_PERICENTER": 135.2494, "MEAN_ANOMALY": 225.5764, "EPHEMERIS_TYPE": 0, "CLASSIFICATION_TYPE": "U", "NORAD_CAT_ID": 30700, "ELEMENT_SET_NO": 999, "REV_AT_EPOCH": 97609, "BSTAR": 0.00017862366, "MEAN_MOTION_DOT": 3.83e-06, "MEAN_MOTION_DDOT": 0}, "tle": {"line1": "1 30700U 99025ARJ 25349.52837717  .00000383  00000+0  17862-3 0  9998", "line2": "2 30700  98.5415  17.7636 0087213 135.2494 225.5764 14.23796371976098"}}, "geometry": {"type": "Point", "coordinates": [-163.81047228705032, -18.655357497122314]}}, {"type": "Feature", "properties": {"norad_id": 30701, "name": "FENGYUN 1C DEB", "group": "fengyun-1c-debris", "lat": 63.64084605044312, "lon": 14.058848161722873, "alt_km": 816.4658282096261, "timestamp": "2025-12-16T21:38:57.452783+00:00", "meta": {"OBJECT_NAME": "FENGYUN 1C DEB", "OBJECT_ID": "1999-025ARK", "EPOCH": "2025-12-15T13:48:37.560672", "MEAN_MOTION": 14.1393466, "ECCENTRICITY": 0.00357597, "INCLINATION": 98.7181, "RA_OF_ASC_NODE": 30.8039, "ARG_OF_PERICENTER": 94.899, "MEAN_ANOMALY": 61.426, "EPHEMERIS_TYPE": 0, "CLASSIFICATION_TYPE": "U", "NORAD_CAT_ID": 30701, "ELEMENT_SET_NO": 999, "REV_AT_EPOCH": 97159, "BSTAR": 1.8177611e-05, "MEAN_MOTION_DOT": -8e-08, "MEAN_MOTION_DDOT": 0}, "tle": {"line1": "1 30701U 99025ARK 25349.57543473 -.00000008  00000+0  18178-4 0  9994", "line2": "2 30701  98.7181  30.8039 0035759  94.8990  61.4260 14.13934660971595"}}, "geometry": {"type": "Point", "coordinates": [14.058848161722873, 63.64084605044312]}}, {"type": "Feature", "properties": {"norad_id": 30702, "name": "FENGYUN 1C DEB", "group": "fengyun-1c-debris", "lat": -32.9276700342748, "lon": -175.1429771646348, "alt_km": 875.6071169991628, "timestamp": "2025-12-16T21:38:57.452795+00:00", "meta": {"OBJECT_NAME": "FENGYUN 1C DEB", "OBJECT_ID": "1999-025ARL", "EPOCH": "2025-12-16T07:00:53.545824", "MEAN_MOTION": 14.03601387, "ECCENTRICITY": 0.00687186, "INCLINATION": 98.7692, "RA_OF_ASC_NODE": 10.006, "ARG_OF_PERICENTER": 291.6722, "MEAN_ANOMALY": 82.9298, "EPHEMERIS_TYPE": 0, "CLASSIFICATION_TYPE": "U", "NORAD_CAT_ID": 30702, "ELEMENT_SET_NO": 999, "REV_AT_EPOCH": 96212, "BSTAR": 0.00079977149, "MEAN_MOTION_DOT": 1.239e-05, "MEAN_MOTION_DDOT": 0}, "tle": {"line1": "1 30702U 99025ARL 25350.29228641  .00001239  00000+0  79977-3 0  9992", "line2": "2 30702  98.7692  10.0060 0068718 291.6722  82.9298 14.03601387962122"}}, "geometry": {"type": "Point", "coordinates": [-175.1429771646348, -32.9276700342748]}}]}